SKYSAT-C4               
1 41771U 16058B   26197.59530148  .00010768  00000+0  19730-3 0  9994
2 41771  96.9160 218.1520 0003471 115.6597 244.5014 15.49466219550020
SKYSAT-C5               
1 41772U 16058C   26197.64663659  .00003977  00000+0  12421-3 0  9999
2 41772  97.0452 236.9643 0002707 156.7043 203.4323 15.33730928548268
SKYSAT-C2               
1 41773U 16058D   26197.84303694  .00006988  00000+0  16203-3 0  9999
2 41773  97.0156 218.8331 0001190 345.3927  14.7287 15.42703276549624
SKYSAT-C3               
1 41774U 16058E   26197.65112620  .00014584  00000+0  22895-3 0  9991
2 41774  96.8990 227.3861 0002596 131.3109 228.8370 15.53750527550689
ALSAT-1B                
1 41785U 16059C   26197.87200190  .00000373  00000+0  66375-4 0  9991
2 41785  97.7749 205.3551 0010404 124.9136 235.3051 14.72295901524949
PATHFINDER 1            
1 41787U 16059E   26197.79313564  .00000258  00000+0  53239-4 0  9991
2 41787  97.8177 195.7348 0029869 110.8632 249.5777 14.67694165524056
SCATSAT 1               
1 41790U 16059H   26197.63189204  .00000633  00000+0  89739-4 0  9991
2 41790  98.1177 261.7000 0055316 151.9832 208.4376 14.79589288105941
GOKTURK 1A              
1 41875U 16073A   26197.86445935  .00000063  00000+0  21486-4 0  9994
2 41875  98.1215  92.0691 0001419  81.3413 278.7950 14.62793469513160
RESOURCESAT-2A          
1 41877U 16074A   26197.84255964 -.00000124  00000+0 -36254-4 0  9995
2 41877  98.7523 271.1029 0002334  24.6403 335.4886 14.21607927498519
CARTOSAT-2D             
1 41948U 17008A   26197.86295830  .00000637  00000+0  33394-4 0  9999
2 41948  97.4087 256.6115 0006159 133.5266 226.6481 15.19288158522080
SENTINEL-2B             
1 42063U 17013A   26197.85786072 -.00000132  00000+0 -33627-4 0  9997
2 42063  98.5688 272.2120 0001205  89.8288 270.3033 14.30814801488882
CARTOSAT-2E             
1 42767U 17036C   26197.81489355  .00001528  00000+0  75673-4 0  9998
2 42767  97.4259 257.1259 0003420 182.0478 178.0743 15.19260840502647
FORMOSAT-5              
1 42920U 17049A   26197.84493189  .00000031  00000+0  19042-4 0  9992
2 42920  98.2246 272.4946 0011229 358.7980   1.3186 14.50908053470970
SENTINEL-5P             
1 42969U 17064A   26197.45352247  .00000010  00000+0  25784-4 0  9995
2 42969  98.7929 139.3777 0001152  93.3196 266.8111 14.19523387453711
SKYSAT-C11              
1 42987U 17068A   26197.84604780  .00018890  00000+0  24059-3 0  9992
2 42987  97.4384 348.0068 0001161 155.9062 204.2249 15.59385175487868
SKYSAT-C10              
1 42988U 17068B   26197.62935921  .00006069  00000+0  18042-3 0  9993
2 42988  97.4544 334.7788 0001491 111.2984 248.8418 15.35133944486873
SKYSAT-C9               
1 42989U 17068C   26197.83170668  .00007614  00000+0  17908-3 0  9993
2 42989  97.4465 336.2058 0008497  39.4522 320.7343 15.42238980487327
SKYSAT-C8               
1 42990U 17068D   26197.36019250  .00005429  00000+0  14989-3 0  9990
2 42990  97.4560 334.4189 0001223 104.1134 256.0246 15.37504120486798
SKYSAT-C7               
1 42991U 17068E   26197.61505100  .00005783  00000+0  15969-3 0  9995
2 42991  97.4572 335.6692 0005615  16.6031 343.5396 15.37458346486893
SKYSAT-C6               
1 42992U 17068F   26197.82361200  .00005094  00000+0  15637-3 0  9997
2 42992  97.4610 335.7271 0005073  85.4144 274.7678 15.34186474486860
CARTOSAT-2F             
1 43111U 18004A   26197.84751760  .00001520  00000+0  75535-4 0  9992
2 43111  97.4769 257.1900 0002399 130.3480 229.7964 15.19177939471834
GAOFEN-1 02             
1 43259U 18031A   26197.84659530 -.00000205  00000+0 -22108-4 0  9996
2 43259  98.0514 260.2883 0001478 276.8076  83.2966 14.76471223447070
GAOFEN-1 03             
1 43260U 18031B   26197.82470307  .00000302  00000+0  50858-4 0  9998
2 43260  98.0503 260.1216 0002287  11.2596 348.8664 14.76463729447062
GAOFEN-1 04             
1 43262U 18031D   26197.86816714  .00000316  00000+0  52839-4 0  9996
2 43262  98.0515 260.3594 0001195  55.7150 304.4173 14.76471853447064
SENTINEL-3B             
1 43437U 18039A   26197.78450514  .00000048  00000+0  37772-4 0  9992
2 43437  98.6236 264.8900 0001186 119.7266 240.4033 14.26736639428348
GAOFEN-5 01             
1 43461U 18043A   26197.51873141  .00000127  00000+0  36144-4 0  9990
2 43461  98.4591 169.7245 0002019  29.4276 330.7037 14.60623810435974
GAOFEN-6                
1 43484U 18048A   26197.89081684  .00000386  00000+0  63124-4 0  9999
2 43484  98.0957 260.5965 0012115  76.6754 283.5805 14.76385169437770
GAOFEN-11 01            
1 43585U 18063A   26197.89005459  .00006957  00000+0  10111-3 0  9991
2 43585  97.1273 264.6990 0003337 191.5070 168.6109 15.56097530444960
ICESAT-2                
1 43613U 18070A   26197.81727669  .00005373  00000+0  19553-3 0  9997
2 43613  92.0094 298.9863 0005495  55.3747 304.8019 15.28194508436980
HYSIS                   
1 43719U 18096A   26197.85111559  .00000003  00000+0  74548-5 0  9993
2 43719  97.9829 264.3643 0001816  82.0481 278.0936 14.78670460411809
KAZSTSAT                
1 43783U 18099AB  26197.65098522  .00000306  00000+0  29099-4 0  9995
2 43783  97.4316 228.2518 0007290 335.1029  24.9842 14.99956799415722
